NORAD_CAT_ID,OBJECT_NAME,OBJECT_TYPE,EPOCH,MEAN_MOTION,ECCENTRICITY,INCLINATION,RA_OF_ASC_NODE,ARG_OF_PERICENTER,MEAN_ANOMALY,BSTAR,MEAN_MOTION_DOT,MEAN_MOTION_DDOT,TLE_LINE0,TLE_LINE1,TLE_LINE2,SEMIMAJOR_AXIS,PERIOD,APOGEE,PERIGEE,DECAYED
55791.0,STARLINK-5807,PAYLOAD,2023-09-10 22:00:00,15.13878541,0.0003319,70.0005,341.1532,275.2078,67.8738,-0.057368,-0.00959853,0.0,0 STARLINK-5807,1 55791U 23028BC  23253.91667824 -.00959853  00000-0 -57368-1 0  9991,2 55791  70.0005 341.1532 0003319 275.2078  67.8738 15.13878541 30585,6902.522,95.12,526.678,522.096,0.0
55791.0,STARLINK-5807,PAYLOAD,2023-09-11 14:00:01,15.12549183,0.0003367,70.0009,339.4332,277.0107,96.7225,-0.056068,-0.00907704,0.0,0 STARLINK-5807,1 55791U 23028BC  23254.58334491 -.00907704  00000-0 -56068-1 0  9990,2 55791  70.0009 339.4332 0003367 277.0107  96.7225 15.12549183 30682,6906.566,95.204,530.757,526.106,0.0
55791.0,STARLINK-5807,PAYLOAD,2023-09-12 06:00:00,15.1125708,0.0003325,70.0011,337.7167,272.3677,128.8694,-0.058459,-0.00912507,0.0,0 STARLINK-5807,1 55791U 23028BC  23255.25001157 -.00912507  00000-0 -58459-1 0  9998,2 55791  70.0011 337.7167 0003325 272.3677 128.8694 15.11257080 30785,6910.502,95.285,534.665,530.069,0.0
55791.0,STARLINK-5807,PAYLOAD,2023-09-12 14:00:01,15.10591547,0.0003334,70.0009,336.8596,278.297,135.5997,-0.059094,-0.00906031,0.0,0 STARLINK-5807,1 55791U 23028BC  23255.58335648 -.00906031  00000-0 -59094-1 0  9990,2 55791  70.0009 336.8596 0003334 278.2970 135.5997 15.10591547  6017,6912.532,95.327,536.701,532.092,0.0
55791.0,STARLINK-5807,PAYLOAD,2023-09-12 22:00:00,15.09958489,0.0003276,70.0008,336.0034,276.7284,148.9028,-0.063238,-0.00949211,0.0,0 STARLINK-5807,1 55791U 23028BC  23255.91667824 -.00949211  00000-0 -63238-1 0  9993,2 55791  70.0008 336.0034 0003276 276.7284 148.9028 15.09958489 30886,6914.464,95.367,538.594,534.064,0.0
55791.0,STARLINK-5807,PAYLOAD,2023-09-13 14:00:01,15.08633312,0.0003275,70.0009,334.2938,279.2698,167.6246,-0.06215,-0.00903023,0.0,0 STARLINK-5807,1 55791U 23028BC  23256.58334491 -.00903023  00000-0 -62150-1 0  9991,2 55791  70.0009 334.2938 0003275 279.2698 167.6246 15.08633312 30981,6918.512,95.451,542.643,538.111,0.0
55791.0,STARLINK-5807,PAYLOAD,2023-09-13 22:00:00,15.0799984,0.0003206,70.0007,333.4402,277.1574,179.1874,-0.066472,-0.00945726,0.0,0 STARLINK-5807,1 55791U 23028BC  23256.91667824 -.00945726  00000-0 -66472-1 0  9994,2 55791  70.0007 333.4402 0003206 277.1574 179.1874 15.07999840  5987,6920.45,95.491,544.533,540.096,0.0
55791.0,STARLINK-5807,PAYLOAD,2023-09-14 06:00:00,15.07349718,0.0003225,70.001,332.5877,274.1599,190.8492,-0.066046,-0.00924802,0.0,0 STARLINK-5807,1 55791U 23028BC  23257.25001157 -.00924802  00000-0 -66046-1 0  9992,2 55791  70.0010 332.5877 0003225 274.1599 190.8492 15.07349718 31081,6922.439,95.532,546.537,542.072,0.0
55791.0,STARLINK-5807,PAYLOAD,2023-09-14 14:00:01,15.06674852,0.0003236,70.0007,331.7358,279.9465,193.0303,-0.065291,-0.00899554,0.0,0 STARLINK-5807,1 55791U 23028BC  23257.58335648 -.00899554  00000-0 -65291-1 0  9999,2 55791  70.0007 331.7358 0003236 279.9465 193.0303 15.06674852  5995,6924.506,95.575,548.612,544.131,0.0
55791.0,STARLINK-5807,PAYLOAD,2023-09-14 22:00:00,15.06040698,0.0003159,70.0005,330.8849,277.3246,202.6935,-0.069764,-0.00941388,0.0,0 STARLINK-5807,1 55791U 23028BC  23257.91667824 -.00941388  00000-0 -69764-1 0  9992,2 55791  70.0005 330.8849 0003159 277.3246 202.6935 15.06040698  5882,6926.45,95.615,550.503,546.127,0.0
55791.0,STARLINK-5807,PAYLOAD,2023-09-15 04:00:00,15.05530588,0.0003302,70.0006,330.2474,273.2569,121.5786,-0.066199,-0.00885343,0.0,0 STARLINK-5807,1 55791U 23028BC  23258.16667824 -.00885343  00000-0 -66199-1 0  9997,2 55791  70.0006 330.2474 0003302 273.2569 121.5786 15.05530588 31225,6928.014,95.647,552.167,547.592,0.0
55791.0,STARLINK-5807,PAYLOAD,2023-09-15 14:00:01,15.04716272,0.0003215,70.0004,329.1857,280.6385,211.2548,-0.068535,-0.00895875,0.0,0 STARLINK-5807,1 55791U 23028BC  23258.58334491 -.00895875  00000-0 -68535-1 0  9991,2 55791  70.0004 329.1857 0003215 280.6385 211.2548 15.04716272 31280,6930.514,95.699,554.607,550.151,0.0
55791.0,STARLINK-5807,PAYLOAD,2023-09-16 06:00:00,15.03440392,0.0003174,70.0003,327.4899,275.305,225.3149,-0.074226,-0.00934524,0.0,0 STARLINK-5807,1 55791U 23028BC  23259.25001157 -.00934524  00000-0 -74226-1 0  9995,2 55791  70.0003 327.4899 0003174 275.3050 225.3149 15.03440392 31380,6934.434,95.78,558.5,554.098,0.0
55791.0,STARLINK-5807,PAYLOAD,2023-09-16 14:00:01,15.02757283,0.0003217,70.0,326.6431,281.3151,222.5169,-0.071891,-0.00892078,0.0,0 STARLINK-5807,1 55791U 23028BC  23259.58334491 -.00892078  00000-0 -71891-1 0  9993,2 55791  70.0000 326.6431 0003217 281.3151 222.5169 15.02757283  5973,6936.536,95.824,560.632,556.169,0.0
55791.0,STARLINK-5807,PAYLOAD,2023-09-17 14:00:01,15.00797683,0.000322,69.9996,324.1081,282.0246,226.7061,-0.075337,-0.00887898,0.0,0 STARLINK-5807,1 55791U 23028BC  23260.58334491 -.00887898  00000-0 -75337-1 0  9998,2 55791  69.9996 324.1081 0003220 282.0246 226.7061 15.00797683 31584,6942.572,95.949,566.673,562.202,0.0
55791.0,STARLINK-5807,PAYLOAD,2023-09-18 06:00:00,14.99372669,0.0003045,69.9995,322.4221,275.5021,232.5849,-0.0096029,-0.00115895,0.0,0 STARLINK-5807,1 55791U 23028BC  23261.25001157 -.00115895  00000-0 -96029-2 0  9996,2 55791  69.9995 322.4221 0003045 275.5021 232.5849 14.99372669 31683,6946.97,96.04,570.951,566.72,0.0
55791.0,STARLINK-5807,PAYLOAD,2023-09-18 14:00:01,14.99278147,0.0003079,69.9993,321.5798,281.755,225.019,0.0029089,0.0003566,0.0,0 STARLINK-5807,1 55791U 23028BC  23261.58334491  .00035660  00000-0  29089-2 0  9993,2 55791  69.9993 321.5798 0003079 281.7550 225.0190 14.99278147 31731,6947.262,96.046,571.266,566.988,0.0
55791.0,STARLINK-5807,PAYLOAD,2023-09-18 22:00:00,14.99281401,0.0003059,69.9991,320.7384,275.6951,229.7198,0.0013371,0.00016297,0.0,0 STARLINK-5807,1 55791U 23028BC  23261.91667824  .00016297  00000-0  13371-2 0  9991,2 55791  69.9991 320.7384 0003059 275.6951 229.7198 14.99281401  5799,6947.252,96.046,571.242,566.992,0.0
55791.0,STARLINK-5807,PAYLOAD,2023-09-19 06:00:00,14.99331561,0.0003081,69.9994,319.8964,273.2496,230.7942,-0.0020358,-0.00024936,0.0,0 STARLINK-5807,1 55791U 23028BC  23262.25001157 -.00024936  00000-0 -20358-2 0  9994,2 55791  69.9994 319.8964 0003081 273.2496 230.7942 14.99331561 31834,6947.097,96.043,571.103,566.822,0.0
55791.0,STARLINK-5807,PAYLOAD,2023-09-20 14:00:01,14.99275928,0.0003218,69.9996,316.5286,275.4461,223.1858,0.0039098,0.00048045,0.0,0 STARLINK-5807,1 55791U 23028BC  23263.58334491  .00048045  00000-0  39098-2 0  9997,2 55791  69.9996 316.5286 0003218 275.4461 223.1858 14.99275928 32034,6947.269,96.046,571.37,566.899,0.0
55791.0,STARLINK-5807,PAYLOAD,2023-09-20 22:00:00,14.99283871,0.0003207,69.9997,315.6867,270.5835,226.6923,0.0027023,0.00033114,0.0,0 STARLINK-5807,1 55791U 23028BC  23263.91667824  .00033114  00000-0  27023-2 0  9999,2 55791  69.9997 315.6867 0003207 270.5835 226.6923 14.99283871  5957,6947.245,96.046,571.338,566.882,0.0
55791.0,STARLINK-5807,PAYLOAD,2023-09-21 06:00:00,14.99333765,0.0003235,70.0,314.8449,269.5759,226.3281,-0.0029281,-0.00035772,0.0,0 STARLINK-5807,1 55791U 23028BC  23264.25001157 -.00035772  00000-0 -29281-2 0  9990,2 55791  70.0000 314.8449 0003235 269.5759 226.3281 14.99333765 32138,6947.091,96.043,571.203,566.708,0.0
55791.0,STARLINK-5807,PAYLOAD,2023-09-21 14:00:01,14.99290366,0.0003253,69.9999,314.003,274.7153,219.8665,0.002226,0.00027242,0.0,0 STARLINK-5807,1 55791U 23028BC  23264.58334491  .00027242  00000-0  22260-2 0  9997,2 55791  69.9999 314.0030 0003253 274.7153 219.8665 14.99290366  5891,6947.225,96.045,571.35,566.83,0.0
55791.0,STARLINK-5807,PAYLOAD,2023-09-22 00:00:02,14.99269648,0.000324,70.0001,312.9508,268.5699,314.3929,0.0061911,0.0007643,0.0,0 STARLINK-5807,1 55791U 23028BC  23265.00002315  .00076430  00000-0  61911-2 0  9991,2 55791  70.0001 312.9508 0003240 268.5699 314.3929 14.99269648  5957,6947.289,96.047,571.405,566.903,0.0
55791.0,STARLINK-5807,PAYLOAD,2023-09-22 10:13:03,14.99313353,0.0002428,69.9988,311.8761,264.8698,95.2185,-0.00014982,-1.927e-05,0.0,0 STARLINK-5807,1 55791U 23028BC  23265.42573316 -.00001927  00000-0 -14982-3 0  9999,2 55791  69.9988 311.8761 0002428 264.8698  95.2185 14.99313353 32314,6947.154,96.044,570.705,567.332,0.0
55791.0,STARLINK-5807,PAYLOAD,2023-09-22 13:25:11,14.99321717,0.0002581,69.9987,311.5398,266.5421,93.5443,-0.00021045,-2.669e-05,0.0,0 STARLINK-5807,1 55791U 23028BC  23265.55916161 -.00002669  00000-0 -21045-3 0  9994,2 55791  69.9987 311.5398 0002581 266.5421  93.5443 14.99321717 32343,6947.128,96.043,570.786,567.2,0.0
55791.0,STARLINK-5807,PAYLOAD,2023-09-22 19:49:29,14.99289503,0.0002544,69.9991,310.8663,268.2868,91.8,0.00029439,3.509e-05,0.0,0 STARLINK-5807,1 55791U 23028BC  23265.82603792  .00003509  00000-0  29439-3 0  9994,2 55791  69.9991 310.8663 0002544 268.2868  91.8000 14.99289503 32388,6947.227,96.045,570.86,567.325,0.0
55791.0,STARLINK-5807,PAYLOAD,2023-09-23 02:13:46,14.99304396,0.0002726,69.9991,310.1922,268.2203,91.8645,2.4821e-05,2.1e-06,0.0,0 STARLINK-5807,1 55791U 23028BC  23266.09290082  .00000210  00000-0  24821-4 0  9995,2 55791  69.9991 310.1922 0002726 268.2203  91.8645 14.99304396 32411,6947.181,96.045,570.94,567.152,0.0
55791.0,STARLINK-5807,PAYLOAD,2023-09-23 11:50:12,14.99302565,0.0002523,70.0001,309.1822,262.4142,97.6731,2.0663e-05,1.59e-06,0.0,0 STARLINK-5807,1 55791U 23028BC  23266.49320184  .00000159  00000-0  20663-4 0  9998,2 55791  70.0001 309.1822 0002523 262.4142  97.6731 14.99302565 32489,6947.187,96.045,570.805,567.299,0.0
55791.0,STARLINK-5807,PAYLOAD,2023-09-23 19:50:46,14.99171841,0.000238,69.9986,308.3392,303.9733,56.12,-0.0013557,-0.00016587,0.0,0 STARLINK-5807,1 55791U 23028BC  23266.82692493 -.00016587  00000-0 -13557-2 0  9996,2 55791  69.9986 308.3392 0002380 303.9733  56.1200 14.99171841 32526,6947.591,96.053,571.109,567.802,0.0
